TURKSAT 4A              
1 39522U 14007A   15301.78105273  .00000128  00000-0  00000+0 0  9996
2 39522   0.0299 272.9737 0004735 326.3457 120.6614  1.00271335  6265
